CCSDS_OMM_VERS = 2.0
CREATION_DATE  = 
ORIGINATOR     = 

OBJECT_NAME    = STARLINK-36078
OBJECT_ID      = 2025-294W
CENTER_NAME    = EARTH
REF_FRAME      = TEME
TIME_SYSTEM    = UTC
MEAN_ELEMENT_THEORY = SGP/SGP4

EPOCH          = 2026-01-01T14:00:01.999872
MEAN_MOTION    = 15.50460356
ECCENTRICITY   = .00013304
INCLINATION    = 43.0008
RA_OF_ASC_NODE = 62.2851
ARG_OF_PERICENTER = 262.4288
MEAN_ANOMALY   = 176.1773

EPHEMERIS_TYPE = 0
CLASSIFICATION_TYPE = U
NORAD_CAT_ID   = 67050
ELEMENT_SET_NO = 999
REV_AT_EPOCH   = 340
BSTAR          = .27676163E-2
MEAN_MOTION_DOT = .164787E-2
MEAN_MOTION_DDOT = 0

CCSDS_OMM_VERS = 2.0
CREATION_DATE  = 
ORIGINATOR     = 

OBJECT_NAME    = STARLINK-35706
OBJECT_ID      = 2025-294X
CENTER_NAME    = EARTH
REF_FRAME      = TEME
TIME_SYSTEM    = UTC
MEAN_ELEMENT_THEORY = SGP/SGP4

EPOCH          = 2026-01-01T14:00:01.999872
MEAN_MOTION    = 15.50585722
ECCENTRICITY   = .00014497
INCLINATION    = 43.0009
RA_OF_ASC_NODE = 62.2810
ARG_OF_PERICENTER = 277.3388
MEAN_ANOMALY   = 163.2039

EPHEMERIS_TYPE = 0
CLASSIFICATION_TYPE = U
NORAD_CAT_ID   = 67051
ELEMENT_SET_NO = 999
REV_AT_EPOCH   = 348
BSTAR          = -.82936706E-3
MEAN_MOTION_DOT = -.48706E-3
MEAN_MOTION_DDOT = 0

CCSDS_OMM_VERS = 2.0
CREATION_DATE  = 
ORIGINATOR     = 

OBJECT_NAME    = STARLINK-35720
OBJECT_ID      = 2025-294Y
CENTER_NAME    = EARTH
REF_FRAME      = TEME
TIME_SYSTEM    = UTC
MEAN_ELEMENT_THEORY = SGP/SGP4

EPOCH          = 2026-01-01T14:00:01.999872
MEAN_MOTION    = 15.50586035
ECCENTRICITY   = .00013943
INCLINATION    = 43.0010
RA_OF_ASC_NODE = 62.2761
ARG_OF_PERICENTER = 271.4718
MEAN_ANOMALY   = 170.9825

EPHEMERIS_TYPE = 0
CLASSIFICATION_TYPE = U
NORAD_CAT_ID   = 67052
ELEMENT_SET_NO = 999
REV_AT_EPOCH   = 347
BSTAR          = -.62726179E-3
MEAN_MOTION_DOT = -.36975E-3
MEAN_MOTION_DDOT = 0

CCSDS_OMM_VERS = 2.0
CREATION_DATE  = 
ORIGINATOR     = 

OBJECT_NAME    = STARLINK-35739
OBJECT_ID      = 2025-294Z
CENTER_NAME    = EARTH
REF_FRAME      = TEME
TIME_SYSTEM    = UTC
MEAN_ELEMENT_THEORY = SGP/SGP4

EPOCH          = 2026-01-01T14:00:01.999872
MEAN_MOTION    = 15.50610896
ECCENTRICITY   = .00015518
INCLINATION    = 43.0011
RA_OF_ASC_NODE = 62.2716
ARG_OF_PERICENTER = 284.6984
MEAN_ANOMALY   = 159.6718

EPHEMERIS_TYPE = 0
CLASSIFICATION_TYPE = U
NORAD_CAT_ID   = 67053
ELEMENT_SET_NO = 999
REV_AT_EPOCH   = 312
BSTAR          = -.15495093E-2
MEAN_MOTION_DOT = -.90306E-3
MEAN_MOTION_DDOT = 0

CCSDS_OMM_VERS = 2.0
CREATION_DATE  = 
ORIGINATOR     = 

OBJECT_NAME    = STARLINK-35754
OBJECT_ID      = 2025-294AA
CENTER_NAME    = EARTH
REF_FRAME      = TEME
TIME_SYSTEM    = UTC
MEAN_ELEMENT_THEORY = SGP/SGP4

EPOCH          = 2026-01-01T14:00:01.999872
MEAN_MOTION    = 15.50559302
ECCENTRICITY   = .00014614
INCLINATION    = 43.0008
RA_OF_ASC_NODE = 62.2663
ARG_OF_PERICENTER = 274.4892
MEAN_ANOMALY   = 171.8108

EPHEMERIS_TYPE = 0
CLASSIFICATION_TYPE = U
NORAD_CAT_ID   = 67054
ELEMENT_SET_NO = 999
REV_AT_EPOCH   = 329
BSTAR          = .16454934E-3
MEAN_MOTION_DOT = .9316E-4
MEAN_MOTION_DDOT = 0

CCSDS_OMM_VERS = 2.0
CREATION_DATE  = 
ORIGINATOR     = 

OBJECT_NAME    = STARLINK-35790
OBJECT_ID      = 2025-294AB
CENTER_NAME    = EARTH
REF_FRAME      = TEME
TIME_SYSTEM    = UTC
MEAN_ELEMENT_THEORY = SGP/SGP4

EPOCH          = 2026-01-01T14:00:01.999872
MEAN_MOTION    = 15.50593793
ECCENTRICITY   = .0001491
INCLINATION    = 43.0006
RA_OF_ASC_NODE = 62.2614
ARG_OF_PERICENTER = 277.0762
MEAN_ANOMALY   = 171.1350

EPHEMERIS_TYPE = 0
CLASSIFICATION_TYPE = U
NORAD_CAT_ID   = 67055
ELEMENT_SET_NO = 999
REV_AT_EPOCH   = 348
BSTAR          = -.10006151E-2
MEAN_MOTION_DOT = -.58636E-3
MEAN_MOTION_DDOT = 0

CCSDS_OMM_VERS = 2.0
CREATION_DATE  = 
ORIGINATOR     = 

OBJECT_NAME    = STARLINK-36143
OBJECT_ID      = 2025-294AC
CENTER_NAME    = EARTH
REF_FRAME      = TEME
TIME_SYSTEM    = UTC
MEAN_ELEMENT_THEORY = SGP/SGP4

EPOCH          = 2026-01-01T14:00:01.999872
MEAN_MOTION    = 15.50543096
ECCENTRICITY   = .00013082
INCLINATION    = 43.0006
RA_OF_ASC_NODE = 62.2451
ARG_OF_PERICENTER = 282.1858
MEAN_ANOMALY   = 171.7792

EPHEMERIS_TYPE = 0
CLASSIFICATION_TYPE = U
NORAD_CAT_ID   = 67056
ELEMENT_SET_NO = 999
REV_AT_EPOCH   = 348
BSTAR          = .12096273E-2
MEAN_MOTION_DOT = .71178E-3
MEAN_MOTION_DDOT = 0

CCSDS_OMM_VERS = 2.0
CREATION_DATE  = 
ORIGINATOR     = 

OBJECT_NAME    = STARLINK-36141
OBJECT_ID      = 2025-294AD
CENTER_NAME    = EARTH
REF_FRAME      = TEME
TIME_SYSTEM    = UTC
MEAN_ELEMENT_THEORY = SGP/SGP4

EPOCH          = 2026-01-01T14:00:01.999872
MEAN_MOTION    = 15.50565540
ECCENTRICITY   = .00015048
INCLINATION    = 43.0006
RA_OF_ASC_NODE = 62.2510
ARG_OF_PERICENTER = 273.3532
MEAN_ANOMALY   = 178.6960

EPHEMERIS_TYPE = 0
CLASSIFICATION_TYPE = U
NORAD_CAT_ID   = 67057
ELEMENT_SET_NO = 999
REV_AT_EPOCH   = 340
BSTAR          = -.13787779E-3
MEAN_MOTION_DOT = -.8418E-4
MEAN_MOTION_DDOT = 0

CCSDS_OMM_VERS = 2.0
CREATION_DATE  = 
ORIGINATOR     = 

OBJECT_NAME    = STARLINK-35767
OBJECT_ID      = 2025-294AE
CENTER_NAME    = EARTH
REF_FRAME      = TEME
TIME_SYSTEM    = UTC
MEAN_ELEMENT_THEORY = SGP/SGP4

EPOCH          = 2026-01-01T14:00:01.999872
MEAN_MOTION    = 15.50562699
ECCENTRICITY   = .0001272
INCLINATION    = 43.0009
RA_OF_ASC_NODE = 62.2564
ARG_OF_PERICENTER = 276.2550
MEAN_ANOMALY   = 173.8734

EPHEMERIS_TYPE = 0
CLASSIFICATION_TYPE = U
NORAD_CAT_ID   = 67058
ELEMENT_SET_NO = 999
REV_AT_EPOCH   = 329
BSTAR          = .13947783E-3
MEAN_MOTION_DOT = .7844E-4
MEAN_MOTION_DDOT = 0

CCSDS_OMM_VERS = 2.0
CREATION_DATE  = 
ORIGINATOR     = 

OBJECT_NAME    = HULIANWANG DIGUI-119
OBJECT_ID      = 2025-295A
CENTER_NAME    = EARTH
REF_FRAME      = TEME
TIME_SYSTEM    = UTC
MEAN_ELEMENT_THEORY = SGP/SGP4

EPOCH          = 2026-01-01T14:53:22.858080
MEAN_MOTION    = 14.24624703
ECCENTRICITY   = .0013925
INCLINATION    = 50.0043
RA_OF_ASC_NODE = 288.4026
ARG_OF_PERICENTER = 316.7565
MEAN_ANOMALY   = 43.2254

EPHEMERIS_TYPE = 0
CLASSIFICATION_TYPE = U
NORAD_CAT_ID   = 67059
ELEMENT_SET_NO = 999
REV_AT_EPOCH   = 295
BSTAR          = .32488576E-3
MEAN_MOTION_DOT = .601E-5
MEAN_MOTION_DDOT = 0

CCSDS_OMM_VERS = 2.0
CREATION_DATE  = 
ORIGINATOR     = 

OBJECT_NAME    = HULIANWANG DIGUI-120
OBJECT_ID      = 2025-295B
CENTER_NAME    = EARTH
REF_FRAME      = TEME
TIME_SYSTEM    = UTC
MEAN_ELEMENT_THEORY = SGP/SGP4

EPOCH          = 2026-01-01T14:46:20.572896
MEAN_MOTION    = 14.24626444
ECCENTRICITY   = .00132941
INCLINATION    = 50.0052
RA_OF_ASC_NODE = 288.3774
ARG_OF_PERICENTER = 317.3999
MEAN_ANOMALY   = 42.5883

EPHEMERIS_TYPE = 0
CLASSIFICATION_TYPE = U
NORAD_CAT_ID   = 67060
ELEMENT_SET_NO = 999
REV_AT_EPOCH   = 295
BSTAR          = .34229401E-3
MEAN_MOTION_DOT = .642E-5
MEAN_MOTION_DDOT = 0

CCSDS_OMM_VERS = 2.0
CREATION_DATE  = 
ORIGINATOR     = 

OBJECT_NAME    = HULIANWANG DIGUI-121
OBJECT_ID      = 2025-295C
CENTER_NAME    = EARTH
REF_FRAME      = TEME
TIME_SYSTEM    = UTC
MEAN_ELEMENT_THEORY = SGP/SGP4

EPOCH          = 2026-01-01T14:48:52.645536
MEAN_MOTION    = 14.24643271
ECCENTRICITY   = .00131997
INCLINATION    = 50.0015
RA_OF_ASC_NODE = 288.3725
ARG_OF_PERICENTER = 316.6307
MEAN_ANOMALY   = 43.3567

EPHEMERIS_TYPE = 0
CLASSIFICATION_TYPE = U
NORAD_CAT_ID   = 67061
ELEMENT_SET_NO = 999
REV_AT_EPOCH   = 295
BSTAR          = .33911452E-3
MEAN_MOTION_DOT = .634E-5
MEAN_MOTION_DDOT = 0

