STARLINK-36078          
1 67050U 25294W   26001.58335648  .00164787  00000+0  27676-2 0  9993
2 67050  43.0008  62.2851 0001330 262.4288 176.1773 15.50460356  3402
STARLINK-35706          
1 67051U 25294X   26001.58335648 -.00048706  00000+0 -82937-3 0  9990
2 67051  43.0009  62.2810 0001449 277.3388 163.2039 15.50585722  3481
STARLINK-35720          
1 67052U 25294Y   26001.58335648 -.00036975  00000+0 -62726-3 0  9990
2 67052  43.0010  62.2761 0001394 271.4718 170.9825 15.50586035  3475
STARLINK-35739          
1 67053U 25294Z   26001.58335648 -.00090306  00000+0 -15495-2 0  9999
2 67053  43.0011  62.2716 0001551 284.6984 159.6718 15.50610896  3123
STARLINK-35754          
1 67054U 25294AA  26001.58335648  .00009316  00000+0  16455-3 0  9997
2 67054  43.0008  62.2663 0001461 274.4892 171.8108 15.50559302  3297
STARLINK-35790          
1 67055U 25294AB  26001.58335648 -.00058636  00000+0 -10006-2 0  9994
2 67055  43.0006  62.2614 0001491 277.0762 171.1350 15.50593793  3485
STARLINK-36143          
1 67056U 25294AC  26001.58335648  .00071178  00000+0  12096-2 0  9990
2 67056  43.0006  62.2451 0001308 282.1858 171.7792 15.50543096  3482
STARLINK-36141          
1 67057U 25294AD  26001.58335648 -.00008418  00000+0 -13788-3 0  9990
2 67057  43.0006  62.2510 0001504 273.3532 178.6960 15.50565540  3401
STARLINK-35767          
1 67058U 25294AE  26001.58335648  .00007844  00000+0  13948-3 0  9999
2 67058  43.0009  62.2564 0001272 276.2550 173.8734 15.50562699  3293
HULIANWANG DIGUI-119    
1 67059U 25295A   26001.62040345  .00000601  00000+0  32489-3 0  9998
2 67059  50.0043 288.4026 0013925 316.7565  43.2254 14.24624703  2953
HULIANWANG DIGUI-120    
1 67060U 25295B   26001.61551589  .00000642  00000+0  34229-3 0  9995
2 67060  50.0052 288.3774 0013294 317.3999  42.5883 14.24626444  2955
HULIANWANG DIGUI-121    
1 67061U 25295C   26001.61727599  .00000634  00000+0  33911-3 0  9990
2 67061  50.0015 288.3725 0013199 316.6307  43.3567 14.24643271  2955
